GLOBALSTAR M067         
1 32263U 07048A   26014.49149063 -.00000121  00000+0 -17401-3 0  9995
2 32263  51.9721 137.6299 0001961  92.0184 345.5643 12.40683762835714
GLOBALSTAR M070         
1 32264U 07048B   26014.77373365 -.00000070  00000+0  19058-3 0  9993
2 32264  51.9724 203.9183 0000879  87.8821 284.9835 12.62329391840392
GLOBALSTAR M066         
1 32265U 07048C   26014.60870044 -.00000103  00000+0 -75297-4 0  9998
2 32265  51.9578 138.7913 0005725  86.7790 286.6215 12.30384773841329
GLOBALSTAR M068         
1 32266U 07048D   26015.02220367 -.00000103  00000+0  49949-5 0  9998
2 32266  51.9904  16.5038 0000834 235.5030 141.4484 12.62837694844320
GLOBALSTAR M079         
1 37188U 10054A   26015.01696703 -.00000083  00000+0  11377-3 0  9996
2 37188  52.0012 214.9437 0001202  72.6619  92.3984 12.62269946703209
GLOBALSTAR M074         
1 37189U 10054B   26015.04514313 -.00000072  00000+0  17712-3 0  9993
2 37189  51.9989 214.1480 0001197  89.1759  83.3471 12.62265504703816
GLOBALSTAR M076         
1 37190U 10054C   26014.79909949 -.00000062  00000+0  23541-3 0  9995
2 37190  52.0002 215.0878 0001318  83.1179 290.1104 12.62269502703501
GLOBALSTAR M077         
1 37191U 10054D   26014.82454977 -.00000043  00000+0  64524-3 0  9991
2 37191  51.9943 208.8219 0001729  79.5887 293.7527 11.68177633703229
